{"generatedAt":"2026-04-11T07:08:35.778928Z","satellites":[{"name":"STARLINK-4393","tle1":"1 53470U 22099F   26100.20811930  .00000914  00000+0  67542-4 0  9995","tle2":"2 53470  97.6046 221.1619 0000977 103.4783 256.6553 15.05648231200711"},{"name":"STARLINK-4316","tle1":"1 53471U 22099G   26099.86056759  .00001104  00000+0  80687-4 0  9992","tle2":"2 53471  97.6031 221.9149 0001049 178.2744 181.8486 15.05648826200736"},{"name":"STARLINK-4447","tle1":"1 53472U 22099H   26100.21365475 -.00003359  00000+0 -22859-3 0  9995","tle2":"2 53472  97.6040 221.1452 0001363  82.1740 277.9641 15.05662380200713"},{"name":"STARLINK-4383","tle1":"1 53473U 22099J   26100.29255095  .00001341  00000+0  97122-4 0  9993","tle2":"2 53473  97.6029 222.4097 0000624  89.7863 270.3435 15.05652772200800"},{"name":"STARLINK-4445","tle1":"1 53474U 22099K   26100.30781656 -.00000107  00000+0 -32068-5 0  9993","tle2":"2 53474  97.6045 221.2985 0001342  88.0309 272.1072 15.05646479200733"},{"name":"STARLINK-4389","tle1":"1 53475U 22099L   26100.25001157  .00105044  00000+0  57983-2 0  9993","tle2":"2 53475  97.6028 221.4319 0001884  76.9947  20.4724 15.13457289  5776"},{"name":"STARLINK-4378","tle1":"1 53476U 22099M   26100.29397150  .00000396  00000+0  31648-4 0  9995","tle2":"2 53476  97.6034 221.3422 0000977  92.1005 268.0333 15.05651682200738"},{"name":"STARLINK-4412","tle1":"1 53477U 22099N   26100.25001157  .00430701  00000+0  22099-1 0  9995","tle2":"2 53477  97.6045 221.3656 0001961  81.9878 233.6209 15.14428782  5767"},{"name":"STARLINK-4433","tle1":"1 53478U 22099P   26100.28565284  .00001339  00000+0  97019-4 0  9993","tle2":"2 53478  97.6039 221.1874 0001582  77.6722 282.4682 15.05652011200724"},{"name":"STARLINK-4436","tle1":"1 53479U 22099Q   26100.20393991  .00000958  00000+0  70619-4 0  9993","tle2":"2 53479  97.6030 222.3564 0000980 203.8207 156.2975 15.05649471200793"},{"name":"STARLINK-4442","tle1":"1 53480U 22099R   26100.25001157  .00097209  00000+0  54183-2 0  9991","tle2":"2 53480  97.6037 222.4617 0001452  93.6343 281.4377 15.13149286  5746"},{"name":"STARLINK-4302","tle1":"1 53481U 22099S   26100.25001157  .00476066  00000+0  23508-1 0  9990","tle2":"2 53481  97.6039 221.4183 0001374  71.3989  38.9648 15.15567772  5728"},{"name":"STARLINK-4360","tle1":"1 53482U 22099T   26100.29674285  .00003011  00000+0  21286-3 0  9992","tle2":"2 53482  97.6033 221.3151 0001221  79.3531 280.7833 15.05639953200730"},{"name":"STARLINK-4426","tle1":"1 53484U 22099V   26099.84395339 -.00000547  00000+0 -33709-4 0  9999","tle2":"2 53484  97.6019 221.9035 0000689 184.8615 175.2605 15.05646842200735"},{"name":"STARLINK-4430","tle1":"1 53485U 22099W   26100.29952576  .00009469  00000+0  65947-3 0  9992","tle2":"2 53485  97.6024 221.2906 0000918 139.9466 220.1829 15.05655845200733"},{"name":"STARLINK-4431","tle1":"1 53486U 22099X   26100.50002315 -.00017559  00000+0 -85865-3 0  9996","tle2":"2 53486  97.6034 221.7216 0001596  84.2517 108.4476 15.18173194  5764"},{"name":"STARLINK-4432","tle1":"1 53487U 22099Y   26100.28977876  .00001084  00000+0  79328-4 0  9997","tle2":"2 53487  97.6033 222.3664 0000397 113.7034 246.4235 15.05652421200807"},{"name":"STARLINK-4421","tle1":"1 53488U 22099Z   26100.33408794  .00000606  00000+0  46222-4 0  9998","tle2":"2 53488  97.6029 222.4739 0001202 176.6052 183.5184 15.05649106200812"},{"name":"STARLINK-4392","tle1":"1 53489U 22099AA  26100.32165448  .00000456  00000+0  35790-4 0  9995","tle2":"2 53489  97.6039 221.2475 0001787  90.6087 269.5344 15.05647734200738"},{"name":"STARLINK-4387","tle1":"1 53490U 22099AB  26100.50002315 -.00013745  00000+0 -76320-3 0  9990","tle2":"2 53490  97.6036 222.7226 0002046  75.2384 338.0232 15.13639664  5727"},{"name":"STARLINK-4450","tle1":"1 53491U 22099AC  26100.50002315 -.00018733  00000+0 -98355-3 0  9995","tle2":"2 53491  97.6013 221.6913 0001444  68.7031 106.5429 15.15696700  5802"},{"name":"STARLINK-4451","tle1":"1 53492U 22099AD  26100.33550716  .00000492  00000+0  38284-4 0  9997","tle2":"2 53492  97.6030 221.3881 0001170  97.3057 262.8303 15.05650938200744"},{"name":"STARLINK-4340","tle1":"1 53494U 22099AF  26100.33131841  .00000408  00000+0  32505-4 0  9990","tle2":"2 53494  97.6030 222.4558 0000477 187.4121 172.7099 15.05649067200811"},{"name":"STARLINK-4429","tle1":"1 53495U 22099AG  26100.57087425  .00000076  00000+0  94572-5 0  9999","tle2":"2 53495  97.6030 221.5143 0001140  90.6227 269.5131 15.05648619200771"},{"name":"STARLINK-4465","tle1":"1 53496U 22099AH  26100.90447000  .00300834  47561-4  28933-3 0  9995","tle2":"2 53496  97.6293 252.0410 0006841 288.0004  72.0534 16.11705124202654"},{"name":"STARLINK-4453","tle1":"1 53497U 22099AJ  26100.31334591 -.00000520  00000+0 -31863-4 0  9991","tle2":"2 53497  97.6028 221.2334 0001522  88.1192 272.0209 15.05649453200734"},{"name":"STARLINK-4439","tle1":"1 53498U 22099AK  26099.83564514  .00001325  00000+0  96031-4 0  9996","tle2":"2 53498  97.6023 221.8720 0000528 126.9834 233.1441 15.05650642200732"},{"name":"STARLINK-4454","tle1":"1 53499U 22099AL  26100.50002315  .00331971  00000+0  20651-1 0  9995","tle2":"2 53499  97.6014 222.6571 0001199  92.2524 253.2622 15.07928575  5464"},{"name":"STARLINK-4455","tle1":"1 53500U 22099AM  26100.50002315 -.00014392  00000+0 -79570-3 0  9991","tle2":"2 53500  97.6011 222.7097 0000716  80.1211  22.1360 15.13806123  5778"},{"name":"STARLINK-4434","tle1":"1 53501U 22099AN  26100.50002315 -.00017994  00000+0 -92139-3 0  9999","tle2":"2 53501  97.6016 221.7232 0001369 104.6053 230.7946 15.16569679  5766"},{"name":"STARLINK-4435","tle1":"1 53502U 22099AP  26100.50002315 -.00022270  00000+0 -11560-2 0  9991","tle2":"2 53502  97.6027 222.8010 0001736  81.3140 264.0900 15.16136427  5829"},{"name":"STARLINK-4448","tle1":"1 53504U 22099AR  26100.50002315 -.00028503  00000+0 -16055-2 0  9992","tle2":"2 53504  97.6028 221.6787 0001471  82.2711 139.1198 15.13289469  5654"},{"name":"STARLINK-4446","tle1":"1 53505U 22099AS  26100.50002315  .00145852  00000+0  16021-2 0  9991","tle2":"2 53505  97.6032 225.3591 0001127  63.4994  88.4466 15.62716175  5923"},{"name":"STARLINK-4437","tle1":"1 53506U 22099AT  26100.50002315  .00320666  00000+0  16070-1 0  9993","tle2":"2 53506  97.6035 222.7362 0001640  73.4061 141.2862 15.15816465  5828"},{"name":"STARLINK-4443","tle1":"1 53508U 22099AV  26100.32023994  .00000220  00000+0  19485-4 0  9998","tle2":"2 53508  97.6028 222.4234 0000660 155.0012 205.1247 15.05647236200811"},{"name":"STARLINK-4402","tle1":"1 53509U 22099AW  26100.00002315  .00267970  00000+0  13745-1 0  9995","tle2":"2 53509  97.6049 221.1697 0001658  78.1036 330.5919 15.15253262  5784"},{"name":"STARLINK-4503","tle1":"1 53528U 22101B   26100.24358133  .00000339  00000+0  39412-4 0  9994","tle2":"2 53528  53.2182 292.4732 0001419  86.4200 273.6955 15.08838542200924"},{"name":"STARLINK-4478","tle1":"1 53529U 22101C   26100.22699368  .00023699  00000+0  13718-2 0  9994","tle2":"2 53529  53.2157 291.7646 0002704 150.1278 209.9870 15.12141716200939"},{"name":"STARLINK-4482","tle1":"1 53530U 22101D   26100.25096987  .00000675  00000+0  60477-4 0  9992","tle2":"2 53530  53.2173 292.6564 0001303  90.8859 269.2283 15.08834724200926"},{"name":"STARLINK-4487","tle1":"1 53531U 22101E   26100.23254238 -.00000189  00000+0  61994-5 0  9993","tle2":"2 53531  53.2183 292.5213 0001487  86.1576 273.9586 15.08835982200920"},{"name":"STARLINK-4483","tle1":"1 53532U 22101F   26100.26564973  .00002733  00000+0  18967-3 0  9993","tle2":"2 53532  53.2162 292.3692 0001303  77.5991 282.5147 15.08848414200933"},{"name":"STARLINK-4493","tle1":"1 53533U 22101G   26100.26198398  .00005232  00000+0  34638-3 0  9998","tle2":"2 53533  53.2167 292.3745 0001201 107.8654 252.2469 15.08860326200935"},{"name":"STARLINK-4138","tle1":"1 53535U 22101J   26100.25830399  .00000711  00000+0  62774-4 0  9993","tle2":"2 53535  53.2171 292.4035 0001317  84.6228 275.4914 15.08842738200931"},{"name":"STARLINK-4053","tle1":"1 53536U 22101K   26100.23344905  .00000497  00000+0  49313-4 0  9990","tle2":"2 53536  53.2170 282.4367 0001178  89.2075 270.9053 15.08843207201065"},{"name":"STARLINK-4120","tle1":"1 53537U 22101L   26100.25926181 -.00000479  00000+0 -11971-4 0  9996","tle2":"2 53537  53.2167 292.3774 0002032  53.8850 306.2331 15.08829069200939"},{"name":"STARLINK-4123","tle1":"1 53539U 22101N   26099.85718351  .00000517  00000+0  50569-4 0  9996","tle2":"2 53539  53.2175 294.2055 0001371  86.3177 273.7972 15.08838870200873"},{"name":"STARLINK-4486","tle1":"1 53540U 22101P   26099.80390069 -.00000873  00000+0 -36759-4 0  9997","tle2":"2 53540  53.2173 284.7994 0001245  88.9795 271.1340 15.08846297201686"},{"name":"STARLINK-4485","tle1":"1 53541U 22101Q   26100.24725911  .00000291  00000+0  36359-4 0  9995","tle2":"2 53541  53.2180 292.4561 0001370  86.3322 273.7827 15.08840295201622"},{"name":"STARLINK-4489","tle1":"1 53542U 22101R   26100.22610305  .00000609  00000+0  56324-4 0  9991","tle2":"2 53542  53.2179 282.5496 0001457  90.4015 269.7144 15.08838422201759"},{"name":"STARLINK-4297","tle1":"1 53543U 22101S   26100.24083144  .00000060  00000+0  21912-4 0  9995","tle2":"2 53543  53.2174 282.5467 0002554  97.7369 262.3913 15.08844087201751"},{"name":"STARLINK-4303","tle1":"1 53544U 22101T   26100.21874488  .00001351  00000+0  10294-3 0  9996","tle2":"2 53544  53.2171 282.5833 0001377  90.2076 269.9074 15.08839749201739"},{"name":"STARLINK-4475","tle1":"1 53545U 22101U   26100.22979383  .00004582  00000+0  30587-3 0  9994","tle2":"2 53545  53.2176 282.5315 0001050 101.9820 258.1290 15.08829955201755"},{"name":"STARLINK-4477","tle1":"1 53546U 22101V   26100.16808874 -.00001610  00000+0 -83102-4 0  9997","tle2":"2 53546  53.2170 272.3391 0001129  86.5890 273.5231 15.08828000201209"},{"name":"STARLINK-4474","tle1":"1 53547U 22101W   26100.22242127  .00000946  00000+0  77517-4 0  9990","tle2":"2 53547  53.2178 282.5669 0001330  86.1573 273.9571 15.08841716201735"}]}